TIANMU-1 08             
1 57400U 23101B   26066.00237819  .00000346  00000+0  14775-4 0  9993
2 57400  97.2717 118.7901 0006380 134.2174 225.9592 15.29204229146020
STARLINK-30575          
1 58052U 23158B   26067.66667824  .00006698  00000+0  25285-3 0  9998
2 58052  43.0037  33.1816 0001738 277.6806 288.0882 15.27562199  5745
